{
  "type": "FeatureCollection",
  "features": [
    {
      "type": "Feature",
      "properties": {
        "cell_id": "V00-02",
        "common_30m_samples": 57,
        "temp_c_2026-09-14": 42.663055419921875,
        "vegetation_pct_2026-09-14": 5.95121955871582,
        "st_qa_k_2026-09-14": 1.909999966621399,
        "temp_c_2026-09-30": 43.158660888671875,
        "vegetation_pct_2026-09-30": 5.8479533195495605,
        "st_qa_k_2026-09-30": 1.8899999856948853
      },
      "geometry": {
        "type": "Polygon",
        "coordinates": [
          [
            [
              51.543893648837496,
              25.3792595244607
            ],
            [
              51.54687568709309,
              25.379248471633243
            ],
            [
              51.54686348817522,
              25.376539406275057
            ],
            [
              51.543881516430645,
              25.376550457758427
            ],
            [
              51.543893648837496,
              25.3792595244607
            ]
          ]
        ]
      }
    },
    {
      "type": "Feature",
      "properties": {
        "cell_id": "V01-01",
        "common_30m_samples": 50,
        "temp_c_2026-09-14": 43.717498779296875,
        "vegetation_pct_2026-09-14": 19.095478057861328,
        "st_qa_k_2026-09-14": 1.9499999284744263,
        "temp_c_2026-09-30": 43.350067138671875,
        "vegetation_pct_2026-09-30": 16.247907638549805,
        "st_qa_k_2026-09-30": 1.9199999570846558
      },
      "geometry": {
        "type": "Polygon",
        "coordinates": [
          [
            [
              51.5408995429356,
              25.376561448821025
            ],
            [
              51.543881516430645,
              25.376550457758427
            ],
            [
              51.54386938577425,
              25.373841390053403
            ],
            [
              51.5408874787808,
              25.37385237977933
            ],
            [
              51.5408995429356,
              25.376561448821025
            ]
          ]
        ]
      }
    },
    {
      "type": "Feature",
      "properties": {
        "cell_id": "V01-02",
        "common_30m_samples": 74,
        "temp_c_2026-09-14": 43.884979248046875,
        "vegetation_pct_2026-09-14": 22.86035919189453,
        "st_qa_k_2026-09-14": 1.9199999570846558,
        "temp_c_2026-09-30": 44.173797607421875,
        "vegetation_pct_2026-09-30": 21.875003814697266,
        "st_qa_k_2026-09-30": 1.8899999856948853
      },
      "geometry": {
        "type": "Polygon",
        "coordinates": [
          [
            [
              51.543881516430645,
              25.376550457758427
            ],
            [
              51.54686348817522,
              25.376539406275057
            ],
            [
              51.54685129101741,
              25.373830339914065
            ],
            [
              51.54386938577425,
              25.373841390053403
            ],
            [
              51.543881516430645,
              25.376550457758427
            ]
          ]
        ]
      }
    },
    {
      "type": "Feature",
      "properties": {
        "cell_id": "V01-05",
        "common_30m_samples": 79,
        "temp_c_2026-09-14": 44.5361328125,
        "vegetation_pct_2026-09-14": 42.01828384399414,
        "st_qa_k_2026-09-14": 1.8899999856948853,
        "temp_c_2026-09-30": 44.43359375,
        "vegetation_pct_2026-09-30": 40.611812591552734,
        "st_qa_k_2026-09-30": 1.8499999046325684
      },
      "geometry": {
        "type": "Polygon",
        "coordinates": [
          [
            [
              51.552827426374584,
              25.376517122046565
            ],
            [
              51.55580939281018,
              25.376505889301722
            ],
            [
              51.55579699614915,
              25.373796827016907
            ],
            [
              51.55281509621445,
              25.373808058395678
            ],
            [
              51.552827426374584,
              25.376517122046565
            ]
          ]
        ]
      }
    },
    {
      "type": "Feature",
      "properties": {
        "cell_id": "V02-00",
        "common_30m_samples": 44,
        "temp_c_2026-09-14": 43.505584716796875,
        "vegetation_pct_2026-09-14": 34.60075759887695,
        "st_qa_k_2026-09-14": 1.9299999475479126,
        "temp_c_2026-09-30": 42.898895263671875,
        "vegetation_pct_2026-09-30": 30.412696838378906,
        "st_qa_k_2026-09-30": 1.899999976158142
      },
      "geometry": {
        "type": "Polygon",
        "coordinates": [
          [
            [
              51.53790557004664,
              25.373863309091693
            ],
            [
              51.5408874787808,
              25.37385237977933
            ],
            [
              51.5408754163667,
              25.37114330973502
            ],
            [
              51.537893574124716,
              25.371154237718113
            ],
            [
              51.53790557004664,
              25.373863309091693
            ]
          ]
        ]
      }
    },
    {
      "type": "Feature",
      "properties": {
        "cell_id": "V02-03",
        "common_30m_samples": 34,
        "temp_c_2026-09-14": 43.751678466796875,
        "vegetation_pct_2026-09-14": 46.40523147583008,
        "st_qa_k_2026-09-14": 1.9399999380111694,
        "temp_c_2026-09-30": 43.835418701171875,
        "vegetation_pct_2026-09-30": 39.46078109741211,
        "st_qa_k_2026-09-30": 1.9199999570846558
      },
      "geometry": {
        "type": "Polygon",
        "coordinates": [
          [
            [
              51.54685129101741,
              25.373830339914065
            ],
            [
              51.54983319450068,
              25.373819229361438
            ],
            [
              51.54982093261111,
              25.371110163349048
            ],
            [
              51.546839095619504,
              25.371121272550354
            ],
            [
              51.54685129101741,
              25.373830339914065
            ]
          ]
        ]
      }
    },
    {
      "type": "Feature",
      "properties": {
        "cell_id": "V02-04",
        "common_30m_samples": 76,
        "temp_c_2026-09-14": 43.522674560546875,
        "vegetation_pct_2026-09-14": 52.08333206176758,
        "st_qa_k_2026-09-14": 1.8799999952316284,
        "temp_c_2026-09-30": 43.126190185546875,
        "vegetation_pct_2026-09-30": 47.25877380371094,
        "st_qa_k_2026-09-30": 1.8499999046325684
      },
      "geometry": {
        "type": "Polygon",
        "coordinates": [
          [
            [
              51.54983319450068,
              25.373819229361438
            ],
            [
              51.55281509621445,
              25.373808058395678
            ],
            [
              51.552802767833406,
              25.37109899374195
            ],
            [
              51.54982093261111,
              25.371110163349048
            ],
            [
              51.54983319450068,
              25.373819229361438
            ]
          ]
        ]
      }
    },
    {
      "type": "Feature",
      "properties": {
        "cell_id": "V02-05",
        "common_30m_samples": 80,
        "temp_c_2026-09-14": 45.503448486328125,
        "vegetation_pct_2026-09-14": 6.0416669845581055,
        "st_qa_k_2026-09-14": 1.8700000047683716,
        "temp_c_2026-09-30": 44.8232421875,
        "vegetation_pct_2026-09-30": 4.375,
        "st_qa_k_2026-09-30": 1.834999918937683
      },
      "geometry": {
        "type": "Polygon",
        "coordinates": [
          [
            [
              51.55281509621445,
              25.373808058395678
            ],
            [
              51.55579699614915,
              25.373796827016907
            ],
            [
              51.55578460127679,
              25.371087763729196
            ],
            [
              51.552802767833406,
              25.37109899374195
            ],
            [
              51.55281509621445,
              25.373808058395678
            ]
          ]
        ]
      }
    },
    {
      "type": "Feature",
      "properties": {
        "cell_id": "V03-03",
        "common_30m_samples": 35,
        "temp_c_2026-09-14": 43.179168701171875,
        "vegetation_pct_2026-09-14": 5.905825614929199,
        "st_qa_k_2026-09-14": 1.96999990940094,
        "temp_c_2026-09-30": 42.823699951171875,
        "vegetation_pct_2026-09-30": 3.3412888050079346,
        "st_qa_k_2026-09-30": 1.9399999380111694
      },
      "geometry": {
        "type": "Polygon",
        "coordinates": [
          [
            [
              51.546839095619504,
              25.371121272550354
            ],
            [
              51.54982093261111,
              25.371110163349048
            ],
            [
              51.549808672490855,
              25.36840109633396
            ],
            [
              51.546826901981305,
              25.36841220418401
            ],
            [
              51.546839095619504,
              25.371121272550354
            ]
          ]
        ]
      }
    },
    {
      "type": "Feature",
      "properties": {
        "cell_id": "V03-04",
        "common_30m_samples": 96,
        "temp_c_2026-09-14": 44.838623046875,
        "vegetation_pct_2026-09-14": 12.297454833984375,
        "st_qa_k_2026-09-14": 1.899999976158142,
        "temp_c_2026-09-30": 44.095184326171875,
        "vegetation_pct_2026-09-30": 10.445603370666504,
        "st_qa_k_2026-09-30": 1.8600000143051147
      },
      "geometry": {
        "type": "Polygon",
        "coordinates": [
          [
            [
              51.54982093261111,
              25.371110163349048
            ],
            [
              51.552802767833406,
              25.37109899374195
            ],
            [
              51.55279044123127,
              25.368389928085467
            ],
            [
              51.549808672490855,
              25.36840109633396
            ],
            [
              51.54982093261111,
              25.371110163349048
            ]
          ]
        ]
      }
    },
    {
      "type": "Feature",
      "properties": {
        "cell_id": "V03-05",
        "common_30m_samples": 46,
        "temp_c_2026-09-14": 43.071502685546875,
        "vegetation_pct_2026-09-14": 40.448753356933594,
        "st_qa_k_2026-09-14": 1.8849999904632568,
        "temp_c_2026-09-30": 42.391326904296875,
        "vegetation_pct_2026-09-30": 36.93803787231445,
        "st_qa_k_2026-09-30": 1.8499999046325684
      },
      "geometry": {
        "type": "Polygon",
        "coordinates": [
          [
            [
              51.552802767833406,
              25.37109899374195
            ],
            [
              51.55578460127679,
              25.371087763729196
            ],
            [
              51.555772208192934,
              25.36837869943867
            ],
            [
              51.55279044123127,
              25.368389928085467
            ],
            [
              51.552802767833406,
              25.37109899374195
            ]
          ]
        ]
      }
    },
    {
      "type": "Feature",
      "properties": {
        "cell_id": "V04-03",
        "common_30m_samples": 59,
        "temp_c_2026-09-14": 44.170379638671875,
        "vegetation_pct_2026-09-14": 5.118483066558838,
        "st_qa_k_2026-09-14": 1.9499999284744263,
        "temp_c_2026-09-30": 44.248992919921875,
        "vegetation_pct_2026-09-30": 3.2227487564086914,
        "st_qa_k_2026-09-30": 1.9199999570846558
      },
      "geometry": {
        "type": "Polygon",
        "coordinates": [
          [
            [
              51.546826901981305,
              25.36841220418401
            ],
            [
              51.549808672490855,
              25.36840109633396
            ],
            [
              51.54979641413975,
              25.365692028316246
            ],
            [
              51.546814710102666,
              25.365703134815092
            ],
            [
              51.546826901981305,
              25.36841220418401
            ]
          ]
        ]
      }
    },
    {
      "type": "Feature",
      "properties": {
        "cell_id": "V04-04",
        "common_30m_samples": 96,
        "temp_c_2026-09-14": 45.077880859375,
        "vegetation_pct_2026-09-14": 5.902778148651123,
        "st_qa_k_2026-09-14": 1.899999976158142,
        "temp_c_2026-09-30": 44.67626953125,
        "vegetation_pct_2026-09-30": 6.192130088806152,
        "st_qa_k_2026-09-30": 1.8700000047683716
      },
      "geometry": {
        "type": "Polygon",
        "coordinates": [
          [
            [
              51.549808672490855,
              25.36840109633396
            ],
            [
              51.55279044123127,
              25.368389928085467
            ],
            [
              51.55277811640786,
              25.365680861426302
            ],
            [
              51.54979641413975,
              25.365692028316246
            ],
            [
              51.549808672490855,
              25.36840109633396
            ]
          ]
        ]
      }
    },
    {
      "type": "Feature",
      "properties": {
        "cell_id": "V05-02",
        "common_30m_samples": 74,
        "temp_c_2026-09-14": 42.996307373046875,
        "vegetation_pct_2026-09-14": 13.549115180969238,
        "st_qa_k_2026-09-14": 1.9499999284744263,
        "temp_c_2026-09-30": 43.298797607421875,
        "vegetation_pct_2026-09-30": 12.669684410095215,
        "st_qa_k_2026-09-30": 1.9199999570846558
      },
      "geometry": {
        "type": "Polygon",
        "coordinates": [
          [
            [
              51.5438330043062,
              25.3657141809227
            ],
            [
              51.546814710102666,
              25.365703134815092
            ],
            [
              51.5468025199834,
              25.362994064443694
            ],
            [
              51.54382088064999,
              25.363005109207506
            ],
            [
              51.5438330043062,
              25.3657141809227
            ]
          ]
        ]
      }
    },
    {
      "type": "Feature",
      "properties": {
        "cell_id": "V05-03",
        "common_30m_samples": 82,
        "temp_c_2026-09-14": 43.980682373046875,
        "vegetation_pct_2026-09-14": 9.41734504699707,
        "st_qa_k_2026-09-14": 1.909999966621399,
        "temp_c_2026-09-30": 44.394287109375,
        "vegetation_pct_2026-09-30": 7.926829814910889,
        "st_qa_k_2026-09-30": 1.8799999952316284
      },
      "geometry": {
        "type": "Polygon",
        "coordinates": [
          [
            [
              51.546814710102666,
              25.365703134815092
            ],
            [
              51.54979641413975,
              25.365692028316246
            ],
            [
              51.54978415755761,
              25.36298295929599
            ],
            [
              51.5468025199834,
              25.362994064443694
            ],
            [
              51.546814710102666,
              25.365703134815092
            ]
          ]
        ]
      }
    },
    {
      "type": "Feature",
      "properties": {
        "cell_id": "V05-04",
        "common_30m_samples": 51,
        "temp_c_2026-09-14": 44.156707763671875,
        "vegetation_pct_2026-09-14": 10.076251983642578,
        "st_qa_k_2026-09-14": 1.9799998998641968,
        "temp_c_2026-09-30": 44.354949951171875,
        "vegetation_pct_2026-09-30": 9.85838794708252,
        "st_qa_k_2026-09-30": 1.9499999284744263
      },
      "geometry": {
        "type": "Polygon",
        "coordinates": [
          [
            [
              51.54979641413975,
              25.365692028316246
            ],
            [
              51.55277811640786,
              25.365680861426302
            ],
            [
              51.55276579336302,
              25.362971793764537
            ],
            [
              51.54978415755761,
              25.36298295929599
            ],
            [
              51.54979641413975,
              25.365692028316246
            ]
          ]
        ]
      }
    }
  ]
}